start=new Date('2022-07-25T00:00:00.000Z').valueOf();
sats=[{"NORAD_CAT_ID":"52672","ECCENTRICITY":"0.00019300","APOAPSIS":"541.112","COUNTRY_CODE":"US","OBJECT_NAME":"STARLINK-4073","ARG_OF_PERICENTER":"40.7016","DECAY_DATE":null,"MEAN_MOTION_DOT":"-0.00007226","MEAN_ANOMALY":"340.3215","RCS_SIZE":"LARGE","REF_FRAME":"TEME","ELEMENT_SET_NO":"999","CLASSIFICATION_TYPE":"U","OBJECT_ID":"2022-053S","EPHEMERIS_TYPE":"0","RA_OF_ASC_NODE":"336.7575","GP_ID":"208801540","SEMIMAJOR_AXIS":"6917.912","TLE_LINE1":"1 52672U 22053S   22205.91667824 -.00007226  00000-0 -43650-3 0  9998","EPOCH":"2022-07-24T22:00:00.999936","BSTAR":"-0.00043650000000","LAUNCH_DATE":"2022-05-18","TLE_LINE2":"2 52672  53.2224 336.7575 0001930  40.7016 340.3215 15.08829776  1304","PERIOD":"95.438","INCLINATION":"53.2224","MEAN_MOTION":"15.08829776","PERIAPSIS":"538.441","FILE":"3521124","MEAN_MOTION_DDOT":"0.0000000000000","TIME_SYSTEM":"UTC","SITE":"AFETR","REV_AT_EPOCH":"130","MEAN_ELEMENT_THEORY":"SGP4","CENTER_NAME":"EARTH","OBJECT_TYPE":"PAYLOAD"},{"EPOCH":"2022-07-24T22:00:00.999936","LAUNCH_DATE":"2022-05-18","BSTAR":"-0.00163720000000","GP_ID":"208802246","SEMIMAJOR_AXIS":"6917.858","TLE_LINE1":"1 52673U 22053T   22205.91667824 -.00026255  00000-0 -16372-2 0  9992","PERIAPSIS":"538.443","PERIOD":"95.437","TLE_LINE2":"2 52673  53.2175 336.7525 0001849  41.8584  79.1687 15.08847488  1306","INCLINATION":"53.2175","MEAN_MOTION":"15.08847488","TIME_SYSTEM":"UTC","FILE":"3521124","MEAN_MOTION_DDOT":"0.0000000000000","MEAN_ELEMENT_THEORY":"SGP4","CENTER_NAME":"EARTH","OBJECT_TYPE":"PAYLOAD","SITE":"AFETR","REV_AT_EPOCH":"130","ECCENTRICITY":"0.00018490","NORAD_CAT_ID":"52673","OBJECT_NAME":"STARLINK-3976","APOAPSIS":"541.002","COUNTRY_CODE":"US","MEAN_ANOMALY":"79.1687","MEAN_MOTION_DOT":"-0.00026255","REF_FRAME":"TEME","RCS_SIZE":"LARGE","ARG_OF_PERICENTER":"41.8584","DECAY_DATE":null,"EPHEMERIS_TYPE":"0","RA_OF_ASC_NODE":"336.7525","CLASSIFICATION_TYPE":"U","ELEMENT_SET_NO":"999","OBJECT_ID":"2022-053T"},{"MEAN_MOTION_DOT":"-0.00018372","MEAN_ANOMALY":"3.0694","RCS_SIZE":"LARGE","REF_FRAME":"TEME","ARG_OF_PERICENTER":"37.9907","DECAY_DATE":null,"EPHEMERIS_TYPE":"0","RA_OF_ASC_NODE":"336.7569","ELEMENT_SET_NO":"999","CLASSIFICATION_TYPE":"U","OBJECT_ID":"2022-053U","NORAD_CAT_ID":"52674","ECCENTRICITY":"0.00019160","OBJECT_NAME":"STARLINK-3936","APOAPSIS":"541.124","COUNTRY_CODE":"US","TIME_SYSTEM":"UTC","FILE":"3521124","MEAN_MOTION_DDOT":"0.0000000000000","MEAN_ELEMENT_THEORY":"SGP4","CENTER_NAME":"EARTH","OBJECT_TYPE":"PAYLOAD","SITE":"AFETR","REV_AT_EPOCH":"130","EPOCH":"2022-07-24T22:00:00.999936","BSTAR":"-0.00113970000000","LAUNCH_DATE":"2022-05-18","GP_ID":"208801655","TLE_LINE1":"1 52674U 22053U   22205.91667824 -.00018372  00000-0 -11397-2 0  9996","SEMIMAJOR_AXIS":"6917.934","PERIAPSIS":"538.473","TLE_LINE2":"2 52674  53.2217 336.7569 0001916  37.9907   3.0694 15.08822499  1301","PERIOD":"95.439","INCLINATION":"53.2217","MEAN_MOTION":"15.08822499"},{"EPOCH":"2022-07-24T22:00:00.999936","BSTAR":"-0.04461100000000","LAUNCH_DATE":"2022-05-18","GP_ID":"208801763","SEMIMAJOR_AXIS":"6865.555","TLE_LINE1":"1 52675U 22053V   22205.91667824 -.01068619  00000-0 -44611-1 0  9991","PERIAPSIS":"486.311","TLE_LINE2":"2 52675  53.2171 327.3004 0001616  46.3230 213.5137 15.26122034  1309","PERIOD":"94.357","MEAN_MOTION":"15.26122034","INCLINATION":"53.2171","TIME_SYSTEM":"UTC","FILE":"3521124","MEAN_MOTION_DDOT":"0.0000000000000","MEAN_ELEMENT_THEORY":"SGP4","OBJECT_TYPE":"PAYLOAD","CENTER_NAME":"EARTH","SITE":"AFETR","REV_AT_EPOCH":"130","NORAD_CAT_ID":"52675","ECCENTRICITY":"0.00016160","OBJECT_NAME":"STARLINK-3934","APOAPSIS":"488.530","COUNTRY_CODE":"US","MEAN_MOTION_DOT":"-0.01068619","MEAN_ANOMALY":"213.5137","RCS_SIZE":"LARGE","REF_FRAME":"TEME","ARG_OF_PERICENTER":"46.3230","DECAY_DATE":null,"EPHEMERIS_TYPE":"0","RA_OF_ASC_NODE":"327.3004","ELEMENT_SET_NO":"999","CLASSIFICATION_TYPE":"U","OBJECT_ID":"2022-053V"},{"OBJECT_NAME":"STARLINK-4006","APOAPSIS":"541.063","COUNTRY_CODE":"US","ECCENTRICITY":"0.00018290","NORAD_CAT_ID":"52676","EPHEMERIS_TYPE":"0","RA_OF_ASC_NODE":"336.7540","CLASSIFICATION_TYPE":"U","ELEMENT_SET_NO":"999","OBJECT_ID":"2022-053W","MEAN_ANOMALY":"58.1211","MEAN_MOTION_DOT":"0.00009022","REF_FRAME":"TEME","RCS_SIZE":"LARGE","ARG_OF_PERICENTER":"42.9306","DECAY_DATE":null,"PERIAPSIS":"538.532","PERIOD":"95.439","TLE_LINE2":"2 52676  53.2186 336.7540 0001829  42.9306  58.1211 15.08823003  1307","INCLINATION":"53.2186","MEAN_MOTION":"15.08823003","EPOCH":"2022-07-24T22:00:00.999936","LAUNCH_DATE":"2022-05-18","BSTAR":"0.00058446000000","GP_ID":"208801905","SEMIMAJOR_AXIS":"6917.932","TLE_LINE1":"1 52676U 22053W   22205.91667824  .00009022  00000-0  58446-3 0  9995","MEAN_ELEMENT_THEORY":"SGP4","OBJECT_TYPE":"PAYLOAD","CENTER_NAME":"EARTH","SITE":"AFETR","REV_AT_EPOCH":"130","TIME_SYSTEM":"UTC","FILE":"3521124","MEAN_MOTION_DDOT":"0.0000000000000"},{"REV_AT_EPOCH":"130","SITE":"AFETR","OBJECT_TYPE":"PAYLOAD","CENTER_NAME":"EARTH","MEAN_ELEMENT_THEORY":"SGP4","MEAN_MOTION_DDOT":"0.0000000000000","FILE":"3521124","TIME_SYSTEM":"UTC","INCLINATION":"53.2171","MEAN_MOTION":"15.26712856","PERIOD":"94.320","TLE_LINE2":"2 52677  53.2171 327.3143 0001380  58.6289 224.8041 15.26712856  1309","PERIAPSIS":"484.702","TLE_LINE1":"1 52677U 22053X   22205.91667824 -.01069294  00000-0 -43848-1 0  9994","SEMIMAJOR_AXIS":"6863.784","GP_ID":"208802341","LAUNCH_DATE":"2022-05-18","BSTAR":"-0.04384800000000","EPOCH":"2022-07-24T22:00:00.999936","OBJECT_ID":"2022-053X","CLASSIFICATION_TYPE":"U","ELEMENT_SET_NO":"999","RA_OF_ASC_NODE":"327.3143","EPHEMERIS_TYPE":"0","DECAY_DATE":null,"ARG_OF_PERICENTER":"58.6289","REF_FRAME":"TEME","RCS_SIZE":"LARGE","MEAN_ANOMALY":"224.8041","MEAN_MOTION_DOT":"-0.01069294","COUNTRY_CODE":"US","APOAPSIS":"486.596","OBJECT_NAME":"STARLINK-4028","ECCENTRICITY":"0.00013800","NORAD_CAT_ID":"52677"},{"MEAN_MOTION_DOT":"-0.01068472","MEAN_ANOMALY":"207.0673","RCS_SIZE":"LARGE","REF_FRAME":"TEME","ARG_OF_PERICENTER":"49.4000","DECAY_DATE":null,"EPHEMERIS_TYPE":"0","RA_OF_ASC_NODE":"327.2992","ELEMENT_SET_NO":"999","CLASSIFICATION_TYPE":"U","OBJECT_ID":"2022-053Y","NORAD_CAT_ID":"52678","ECCENTRICITY":"0.00015680","OBJECT_NAME":"STARLINK-4074","APOAPSIS":"488.698","COUNTRY_CODE":"US","TIME_SYSTEM":"UTC","FILE":"3521124","MEAN_MOTION_DDOT":"0.0000000000000","MEAN_ELEMENT_THEORY":"SGP4","OBJECT_TYPE":"PAYLOAD","CENTER_NAME":"EARTH","SITE":"AFETR","REV_AT_EPOCH":"130","EPOCH":"2022-07-24T22:00:00.999936","BSTAR":"-0.04469600000000","LAUNCH_DATE":"2022-05-18","GP_ID":"208802021","SEMIMAJOR_AXIS":"6865.757","TLE_LINE1":"1 52678U 22053Y   22205.91667824 -.01068472  00000-0 -44696-1 0  9994","PERIAPSIS":"486.545","TLE_LINE2":"2 52678  53.2171 327.2992 0001568  49.4000 207.0673 15.26054785  1302","PERIOD":"94.361","INCLINATION":"53.2171","MEAN_MOTION":"15.26054785"},{"MEAN_MOTION":"15.27598805","INCLINATION":"53.2172","PERIOD":"94.266","TLE_LINE2":"2 52679  53.2172 327.3345 0001462  47.3303 270.4644 15.27598805  1302","PERIAPSIS":"481.992","TLE_LINE1":"1 52679U 22053Z   22205.91667824 -.01069726  00000-0 -42694-1 0  9994","SEMIMAJOR_AXIS":"6861.130","GP_ID":"208802130","LAUNCH_DATE":"2022-05-18","BSTAR":"-0.04269400000000","EPOCH":"2022-07-24T22:00:00.999936","REV_AT_EPOCH":"130","SITE":"AFETR","CENTER_NAME":"EARTH","OBJECT_TYPE":"PAYLOAD","MEAN_ELEMENT_THEORY":"SGP4","MEAN_MOTION_DDOT":"0.0000000000000","FILE":"3521124","TIME_SYSTEM":"UTC","COUNTRY_CODE":"US","APOAPSIS":"483.998","OBJECT_NAME":"STARLINK-4031","ECCENTRICITY":"0.00014620","NORAD_CAT_ID":"52679","OBJECT_ID":"2022-053Z","CLASSIFICATION_TYPE":"U","ELEMENT_SET_NO":"999","RA_OF_ASC_NODE":"327.3345","EPHEMERIS_TYPE":"0","DECAY_DATE":null,"ARG_OF_PERICENTER":"47.3303","REF_FRAME":"TEME","RCS_SIZE":"LARGE","MEAN_ANOMALY":"270.4644","MEAN_MOTION_DOT":"-0.01069726"},{"DECAY_DATE":null,"ARG_OF_PERICENTER":"46.3026","RCS_SIZE":"LARGE","REF_FRAME":"TEME","MEAN_MOTION_DOT":"-0.01069060","MEAN_ANOMALY":"225.4010","OBJECT_ID":"2022-053AA","ELEMENT_SET_NO":"999","CLASSIFICATION_TYPE":"U","RA_OF_ASC_NODE":"327.3075","EPHEMERIS_TYPE":"0","NORAD_CAT_ID":"52680","ECCENTRICITY":"0.00015880","COUNTRY_CODE":"US","APOAPSIS":"487.624","OBJECT_NAME":"STARLINK-3774","MEAN_MOTION_DDOT":"0.0000000000000","FILE":"3521124","TIME_SYSTEM":"UTC","REV_AT_EPOCH":"130","SITE":"AFETR","CENTER_NAME":"EARTH","OBJECT_TYPE":"PAYLOAD","MEAN_ELEMENT_THEORY":"SGP4","SEMIMAJOR_AXIS":"6864.669","TLE_LINE1":"1 52680U 22053AA  22205.91667824 -.01069060  00000-0 -44232-1 0  9997","GP_ID":"208801541","BSTAR":"-0.04423200000000","LAUNCH_DATE":"2022-05-18","EPOCH":"2022-07-24T22:00:00.999936","MEAN_MOTION":"15.26417506","INCLINATION":"53.2171","TLE_LINE2":"2 52680  53.2171 327.3075 0001588  46.3026 225.4010 15.26417506  1307","PERIOD":"94.339","PERIAPSIS":"485.444"},{"OBJECT_TYPE":"PAYLOAD","CENTER_NAME":"EARTH","MEAN_ELEMENT_THEORY":"SGP4","REV_AT_EPOCH":"130","SITE":"AFETR","TIME_SYSTEM":"UTC","MEAN_MOTION_DDOT":"0.0000000000000","FILE":"3521124","PERIAPSIS":"481.136","INCLINATION":"53.2172","MEAN_MOTION":"15.27893979","PERIOD":"94.247","TLE_LINE2":"2 52681  53.2172 327.3411 0001422  48.5812 280.3921 15.27893979  1301","LAUNCH_DATE":"2022-05-18","BSTAR":"-0.04230400000000","EPOCH":"2022-07-24T22:00:00.999936","SEMIMAJOR_AXIS":"6860.246","TLE_LINE1":"1 52681U 22053AB  22205.91667824 -.01069603  00000-0 -42304-1 0  9999","GP_ID":"208802247","RA_OF_ASC_NODE":"327.3411","EPHEMERIS_TYPE":"0","OBJECT_ID":"2022-053AB","CLASSIFICATION_TYPE":"U","ELEMENT_SET_NO":"999","REF_FRAME":"TEME","RCS_SIZE":"LARGE","MEAN_ANOMALY":"280.3921","MEAN_MOTION_DOT":"-0.01069603","DECAY_DATE":null,"ARG_OF_PERICENTER":"48.5812","OBJECT_NAME":"STARLINK-4068","COUNTRY_CODE":"US","APOAPSIS":"483.087","ECCENTRICITY":"0.00014220","NORAD_CAT_ID":"52681"}];
